[
  {
    "OBJECT_NAME": "FENGYUN 3E",
    "OBJECT_ID": "2021-062A",
    "EPOCH": "2025-05-04T04:54:03.642912",
    "MEAN_MOTION": 14.19862519,
    "ECCENTRICITY": 0.0001842,
    "INCLINATION": 98.7426,
    "RA_OF_ASC_NODE": 127.3748,
    "ARG_OF_PERICENTER": 149.1693,
    "MEAN_ANOMALY": 210.9592,
    "EPHEMERIS_TYPE": 0,
    "CLASSIFICATION_TYPE": "U",
    "NORAD_CAT_ID": 49008,
    "ELEMENT_SET_NO": 999,
    "REV_AT_EPOCH": 19854,
    "BSTAR": 4.3407e-05,
    "MEAN_MOTION_DOT": 4.8e-07,
    "MEAN_MOTION_DDOT": 0
  },
  {
    "OBJECT_NAME": "GOES 18",
    "OBJECT_ID": "2022-021A",
    "EPOCH": "2025-05-04T03:25:27.844032",
    "MEAN_MOTION": 1.00273036,
    "ECCENTRICITY": 1.62e-05,
    "INCLINATION": 0.002,
    "RA_OF_ASC_NODE": 216.3763,
    "ARG_OF_PERICENTER": 236.6814,
    "MEAN_ANOMALY": 43.5861,
    "EPHEMERIS_TYPE": 0,
    "CLASSIFICATION_TYPE": "U",
    "NORAD_CAT_ID": 51850,
    "ELEMENT_SET_NO": 999,
    "REV_AT_EPOCH": 1170,
    "BSTAR": 0,
    "MEAN_MOTION_DOT": 8.6e-07,
    "MEAN_MOTION_DDOT": 0
  },
  {
    "OBJECT_NAME": "NOAA 21 (JPSS-2)",
    "OBJECT_ID": "2022-150A",
    "EPOCH": "2025-05-03T20:53:47.685120",
    "MEAN_MOTION": 14.19528194,
    "ECCENTRICITY": 5.6e-05,
    "INCLINATION": 98.7253,
    "RA_OF_ASC_NODE": 63.2794,
    "ARG_OF_PERICENTER": 312.3197,
    "MEAN_ANOMALY": 47.7932,
    "EPHEMERIS_TYPE": 0,
    "CLASSIFICATION_TYPE": "U",
    "NORAD_CAT_ID": 54234,
    "ELEMENT_SET_NO": 999,
    "REV_AT_EPOCH": 12847,
    "BSTAR": 0.0001023,
    "MEAN_MOTION_DOT": 1.72e-06,
    "MEAN_MOTION_DDOT": 0
  },
  {
    "OBJECT_NAME": "METEOSAT-12 (MTG-I1)",
    "OBJECT_ID": "2022-170C",
    "EPOCH": "2025-05-03T21:17:38.482944",
    "MEAN_MOTION": 1.00270777,
    "ECCENTRICITY": 0.0001083,
    "INCLINATION": 0.6498,
    "RA_OF_ASC_NODE": 35.7867,
    "ARG_OF_PERICENTER": 311.3776,
    "MEAN_ANOMALY": 193.873,
    "EPHEMERIS_TYPE": 0,
    "CLASSIFICATION_TYPE": "U",
    "NORAD_CAT_ID": 54743,
    "ELEMENT_SET_NO": 999,
    "REV_AT_EPOCH": 887,
    "BSTAR": 0,
    "MEAN_MOTION_DOT": -1.8e-07,
    "MEAN_MOTION_DDOT": 0
  },
  {
    "OBJECT_NAME": "TIANMU-1 03",
    "OBJECT_ID": "2023-039A",
    "EPOCH": "2025-05-04T02:56:12.395616",
    "MEAN_MOTION": 15.34446968,
    "ECCENTRICITY": 0.0005314,
    "INCLINATION": 97.4979,
    "RA_OF_ASC_NODE": 282.0596,
    "ARG_OF_PERICENTER": 124.6735,
    "MEAN_ANOMALY": 235.5009,
    "EPHEMERIS_TYPE": 0,
    "CLASSIFICATION_TYPE": "U",
    "NORAD_CAT_ID": 55973,
    "ELEMENT_SET_NO": 999,
    "REV_AT_EPOCH": 11786,
    "BSTAR": 0.0004645,
    "MEAN_MOTION_DOT": 0.00015436,
    "MEAN_MOTION_DDOT": 0
  },
  {
    "OBJECT_NAME": "TIANMU-1 04",
    "OBJECT_ID": "2023-039B",
    "EPOCH": "2025-05-04T03:22:09.975936",
    "MEAN_MOTION": 15.34670142,
    "ECCENTRICITY": 0.000618,
    "INCLINATION": 97.4906,
    "RA_OF_ASC_NODE": 281.3897,
    "ARG_OF_PERICENTER": 121.7187,
    "MEAN_ANOMALY": 238.4659,
    "EPHEMERIS_TYPE": 0,
    "CLASSIFICATION_TYPE": "U",
    "NORAD_CAT_ID": 55974,
    "ELEMENT_SET_NO": 999,
    "REV_AT_EPOCH": 11786,
    "BSTAR": 0.00045917,
    "MEAN_MOTION_DOT": 0.00015369,
    "MEAN_MOTION_DDOT": 0
  },
  {
    "OBJECT_NAME": "TIANMU-1 05",
    "OBJECT_ID": "2023-039C",
    "EPOCH": "2025-05-04T05:19:34.677696",
    "MEAN_MOTION": 15.3442615,
    "ECCENTRICITY": 0.0004817,
    "INCLINATION": 97.4954,
    "RA_OF_ASC_NODE": 281.9256,
    "ARG_OF_PERICENTER": 140.0179,
    "MEAN_ANOMALY": 220.1419,
    "EPHEMERIS_TYPE": 0,
    "CLASSIFICATION_TYPE": "U",
    "NORAD_CAT_ID": 55975,
    "ELEMENT_SET_NO": 999,
    "REV_AT_EPOCH": 11786,
    "BSTAR": 0.00044495,
    "MEAN_MOTION_DOT": 0.0001477,
    "MEAN_MOTION_DDOT": 0
  },
  {
    "OBJECT_NAME": "TIANMU-1 06",
    "OBJECT_ID": "2023-039D",
    "EPOCH": "2025-05-04T05:14:03.913440",
    "MEAN_MOTION": 15.34753459,
    "ECCENTRICITY": 0.0005219,
    "INCLINATION": 97.4967,
    "RA_OF_ASC_NODE": 282.2225,
    "ARG_OF_PERICENTER": 137.6279,
    "MEAN_ANOMALY": 222.5368,
    "EPHEMERIS_TYPE": 0,
    "CLASSIFICATION_TYPE": "U",
    "NORAD_CAT_ID": 55976,
    "ELEMENT_SET_NO": 999,
    "REV_AT_EPOCH": 11787,
    "BSTAR": 0.00044633,
    "MEAN_MOTION_DOT": 0.00014973,
    "MEAN_MOTION_DDOT": 0
  },
  {
    "OBJECT_NAME": "METEOR-M2 3",
    "OBJECT_ID": "2023-091A",
    "EPOCH": "2025-05-04T03:57:51.222816",
    "MEAN_MOTION": 14.2399608,
    "ECCENTRICITY": 0.0002786,
    "INCLINATION": 98.6639,
    "RA_OF_ASC_NODE": 181.182,
    "ARG_OF_PERICENTER": 281.522,
    "MEAN_ANOMALY": 78.5646,
    "EPHEMERIS_TYPE": 0,
    "CLASSIFICATION_TYPE": "U",
    "NORAD_CAT_ID": 57166,
    "ELEMENT_SET_NO": 999,
    "REV_AT_EPOCH": 9630,
    "BSTAR": 3.6745e-05,
    "MEAN_MOTION_DOT": 4.1e-07,
    "MEAN_MOTION_DDOT": 0
  },
  {
    "OBJECT_NAME": "TIANMU-1 07",
    "OBJECT_ID": "2023-101A",
    "EPOCH": "2025-05-04T04:29:43.062144",
    "MEAN_MOTION": 15.24641716,
    "ECCENTRICITY": 0.0005802,
    "INCLINATION": 97.3136,
    "RA_OF_ASC_NODE": 179.1128,
    "ARG_OF_PERICENTER": 132.3735,
    "MEAN_ANOMALY": 227.7995,
    "EPHEMERIS_TYPE": 0,
    "CLASSIFICATION_TYPE": "U",
    "NORAD_CAT_ID": 57399,
    "ELEMENT_SET_NO": 999,
    "REV_AT_EPOCH": 9921,
    "BSTAR": 0.00034719,
    "MEAN_MOTION_DOT": 8.507e-05,
    "MEAN_MOTION_DDOT": 0
  },
  {
    "OBJECT_NAME": "TIANMU-1 08",
    "OBJECT_ID": "2023-101B",
    "EPOCH": "2025-05-04T03:41:12.778368",
    "MEAN_MOTION": 15.24646812,
    "ECCENTRICITY": 0.0007768,
    "INCLINATION": 97.3125,
    "RA_OF_ASC_NODE": 178.913,
    "ARG_OF_PERICENTER": 139.3765,
    "MEAN_ANOMALY": 220.8054,
    "EPHEMERIS_TYPE": 0,
    "CLASSIFICATION_TYPE": "U",
    "NORAD_CAT_ID": 57400,
    "ELEMENT_SET_NO": 999,
    "REV_AT_EPOCH": 9920,
    "BSTAR": 0.00036092,
    "MEAN_MOTION_DOT": 8.852e-05,
    "MEAN_MOTION_DDOT": 0
  },
  {
    "OBJECT_NAME": "TIANMU-1 09",
    "OBJECT_ID": "2023-101C",
    "EPOCH": "2025-05-04T04:50:10.046688",
    "MEAN_MOTION": 15.24722713,
    "ECCENTRICITY": 0.0007611,
    "INCLINATION": 97.308,
    "RA_OF_ASC_NODE": 178.6138,
    "ARG_OF_PERICENTER": 136.568,
    "MEAN_ANOMALY": 223.6159,
    "EPHEMERIS_TYPE": 0,
    "CLASSIFICATION_TYPE": "U",
    "NORAD_CAT_ID": 57401,
    "ELEMENT_SET_NO": 999,
    "REV_AT_EPOCH": 9921,
    "BSTAR": 0.00035655,
    "MEAN_MOTION_DOT": 8.763e-05,
    "MEAN_MOTION_DDOT": 0
  },
  {
    "OBJECT_NAME": "TIANMU-1 10",
    "OBJECT_ID": "2023-101D",
    "EPOCH": "2025-05-04T04:01:28.658784",
    "MEAN_MOTION": 15.2454943,
    "ECCENTRICITY": 0.0008847,
    "INCLINATION": 97.316,
    "RA_OF_ASC_NODE": 179.1974,
    "ARG_OF_PERICENTER": 140.1654,
    "MEAN_ANOMALY": 220.0235,
    "EPHEMERIS_TYPE": 0,
    "CLASSIFICATION_TYPE": "U",
    "NORAD_CAT_ID": 57402,
    "ELEMENT_SET_NO": 999,
    "REV_AT_EPOCH": 9920,
    "BSTAR": 0.00038097,
    "MEAN_MOTION_DOT": 9.37e-05,
    "MEAN_MOTION_DDOT": 1.7653e-08
  },
  {
    "OBJECT_NAME": "FENGYUN 3F",
    "OBJECT_ID": "2023-111A",
    "EPOCH": "2025-05-04T04:50:01.145760",
    "MEAN_MOTION": 14.20036038,
    "ECCENTRICITY": 6.39e-05,
    "INCLINATION": 98.7281,
    "RA_OF_ASC_NODE": 195.7554,
    "ARG_OF_PERICENTER": 140.429,
    "MEAN_ANOMALY": 219.6933,
    "EPHEMERIS_TYPE": 0,
    "CLASSIFICATION_TYPE": "U",
    "NORAD_CAT_ID": 57490,
    "ELEMENT_SET_NO": 999,
    "REV_AT_EPOCH": 9082,
    "BSTAR": 8.8234e-05,
    "MEAN_MOTION_DOT": 1.44e-06,
    "MEAN_MOTION_DDOT": 0
  }
]