FENGYUN 3E              
1 49008U 21062A   25124.20420883  .00000048  00000+0  43407-4 0  9996
2 49008  98.7426 127.3748 0001842 149.1693 210.9592 14.19862519198540
GOES 18                 
1 51850U 22021A   25124.14268338  .00000086  00000+0  00000+0 0  9997
2 51850   0.0020 216.3763 0000162 236.6814  43.5861  1.00273036 11708
NOAA 21 (JPSS-2)        
1 54234U 22150A   25123.87069080  .00000172  00000+0  10230-3 0  9997
2 54234  98.7253  63.2794 0000560 312.3197  47.7932 14.19528194128470
METEOSAT-12 (MTG-I1)    
1 54743U 22170C   25123.88725096 -.00000018  00000+0  00000+0 0  9991
2 54743   0.6498  35.7867 0001083 311.3776 193.8730  1.00270777  8873
TIANMU-1 03             
1 55973U 23039A   25124.12236569  .00015436  00000+0  46450-3 0  9994
2 55973  97.4979 282.0596 0005314 124.6735 235.5009 15.34446968117866
TIANMU-1 04             
1 55974U 23039B   25124.14039324  .00015369  00000+0  45917-3 0  9999
2 55974  97.4906 281.3897 0006180 121.7187 238.4659 15.34670142117860
TIANMU-1 05             
1 55975U 23039C   25124.22192914  .00014770  00000+0  44495-3 0  9999
2 55975  97.4954 281.9256 0004817 140.0179 220.1419 15.34426150117869
TIANMU-1 06             
1 55976U 23039D   25124.21810085  .00014973  00000+0  44633-3 0  9994
2 55976  97.4967 282.2225 0005219 137.6279 222.5368 15.34753459117879
METEOR-M2 3             
1 57166U 23091A   25124.16517619  .00000041  00000+0  36745-4 0  9993
2 57166  98.6639 181.1820 0002786 281.5220  78.5646 14.23996080 96308
TIANMU-1 07             
1 57399U 23101A   25124.18730396  .00008507  00000+0  34719-3 0  9997
2 57399  97.3136 179.1128 0005802 132.3735 227.7995 15.24641716 99211
TIANMU-1 08             
1 57400U 23101B   25124.15362012  .00008852  00000+0  36092-3 0  9992
2 57400  97.3125 178.9130 0007768 139.3765 220.8054 15.24646812 99206
TIANMU-1 09             
1 57401U 23101C   25124.20150517  .00008763  00000+0  35655-3 0  9999
2 57401  97.3080 178.6138 0007611 136.5680 223.6159 15.24722713 99217
TIANMU-1 10             
1 57402U 23101D   25124.16769281  .00009370  17653-7  38097-3 0  9997
2 57402  97.3160 179.1974 0008847 140.1654 220.0235 15.24549430 99203
FENGYUN 3F              
1 57490U 23111A   25124.20140215  .00000144  00000+0  88234-4 0  9999
2 57490  98.7281 195.7554 0000639 140.4290 219.6933 14.20036038 90825
